start=new Date('2021-10-11T00:00:00.000Z').valueOf();
sats=[{"NORAD_CAT_ID":"47780","BSTAR":"-0.00007433200000","APOAPSIS":"548.312","MEAN_ELEMENT_THEORY":"SGP4","SITE":"AFETR","MEAN_MOTION_DOT":"-0.00001388","SEMIMAJOR_AXIS":"6925.380","RA_OF_ASC_NODE":"244.0555","PERIAPSIS":"546.177","TIME_SYSTEM":"UTC","ARG_OF_PERICENTER":"69.0686","OBJECT_NAME":"STARLINK-2213","LAUNCH_DATE":"2021-03-04","GP_ID":"186839857","PERIOD":"95.593","MEAN_ANOMALY":"291.0468","TLE_LINE1":"1 47780U 21017BL  21283.60527909 -.00001388  00000-0 -74332-4 0  9996","OBJECT_ID":"2021-017BL","INCLINATION":"53.0551","CLASSIFICATION_TYPE":"U","COUNTRY_CODE":"US","EPOCH":"2021-10-10T14:31:36.113376","RCS_SIZE":"LARGE","EPHEMERIS_TYPE":"0","ECCENTRICITY":"0.00015410","MEAN_MOTION":"15.06389859","CENTER_NAME":"EARTH","OBJECT_TYPE":"PAYLOAD","ELEMENT_SET_NO":"999","MEAN_MOTION_DDOT":"0.0000000000000","REF_FRAME":"TEME","REV_AT_EPOCH":"3495","DECAY_DATE":null,"FILE":"3155694","TLE_LINE2":"2 47780  53.0551 244.0555 0001541  69.0686 291.0468 15.06389859 34953"},{"PERIAPSIS":"546.113","MEAN_MOTION_DOT":"-0.00001223","SITE":"AFETR","SEMIMAJOR_AXIS":"6925.349","RA_OF_ASC_NODE":"245.3604","APOAPSIS":"548.316","BSTAR":"-0.00006320200000","MEAN_ELEMENT_THEORY":"SGP4","NORAD_CAT_ID":"47781","OBJECT_ID":"2021-017BM","TLE_LINE1":"1 47781U 21017BM  21283.31502879 -.00001223  00000-0 -63202-4 0  9996","MEAN_ANOMALY":"288.9638","PERIOD":"95.592","LAUNCH_DATE":"2021-03-04","GP_ID":"186782987","TIME_SYSTEM":"UTC","ARG_OF_PERICENTER":"71.1523","OBJECT_NAME":"STARLINK-2223","EPHEMERIS_TYPE":"0","ECCENTRICITY":"0.00015900","EPOCH":"2021-10-10T07:33:38.487456","RCS_SIZE":"LARGE","COUNTRY_CODE":"US","INCLINATION":"53.0546","CLASSIFICATION_TYPE":"U","TLE_LINE2":"2 47781  53.0546 245.3604 0001590  71.1523 288.9638 15.06399726 34863","REV_AT_EPOCH":"3486","DECAY_DATE":null,"FILE":"3155126","ELEMENT_SET_NO":"999","MEAN_MOTION_DDOT":"0.0000000000000","REF_FRAME":"TEME","MEAN_MOTION":"15.06399726","CENTER_NAME":"EARTH","OBJECT_TYPE":"PAYLOAD"},{"PERIOD":"95.592","MEAN_ANOMALY":"290.9204","TLE_LINE1":"1 47787U 21018A   21283.53251194 -.00000056  00000-0  15165-4 0  9995","OBJECT_ID":"2021-018A","OBJECT_NAME":"STARLINK-2257","ARG_OF_PERICENTER":"69.1963","TIME_SYSTEM":"UTC","GP_ID":"186841359","LAUNCH_DATE":"2021-03-11","RA_OF_ASC_NODE":"284.3885","SITE":"AFETR","SEMIMAJOR_AXIS":"6925.359","MEAN_MOTION_DOT":"-0.00000056","PERIAPSIS":"546.070","NORAD_CAT_ID":"47787","MEAN_ELEMENT_THEORY":"SGP4","APOAPSIS":"548.378","BSTAR":"0.00001516500000","DECAY_DATE":null,"FILE":"3155694","REV_AT_EPOCH":"3375","TLE_LINE2":"2 47787  53.0558 284.3885 0001666  69.1963 290.9204 15.06396660 33758","OBJECT_TYPE":"PAYLOAD","CENTER_NAME":"EARTH","MEAN_MOTION":"15.06396660","REF_FRAME":"TEME","MEAN_MOTION_DDOT":"0.0000000000000","ELEMENT_SET_NO":"999","RCS_SIZE":"LARGE","EPOCH":"2021-10-10T12:46:49.031616","ECCENTRICITY":"0.00016660","EPHEMERIS_TYPE":"0","INCLINATION":"53.0558","CLASSIFICATION_TYPE":"U","COUNTRY_CODE":"US"},{"MEAN_ELEMENT_THEORY":"SGP4","APOAPSIS":"486.412","BSTAR":"-0.00437590000000","NORAD_CAT_ID":"47788","PERIAPSIS":"484.704","RA_OF_ASC_NODE":"258.3394","MEAN_MOTION_DOT":"-0.00115145","SITE":"AFETR","SEMIMAJOR_AXIS":"6863.693","GP_ID":"186840107","LAUNCH_DATE":"2021-03-11","OBJECT_NAME":"STARLINK-2314","ARG_OF_PERICENTER":"36.5376","TIME_SYSTEM":"UTC","TLE_LINE1":"1 47788U 21018B   21283.64722236 -.00115145  00000-0 -43759-2 0  9993","OBJECT_ID":"2021-018B","MEAN_ANOMALY":"323.5706","PERIOD":"94.318","COUNTRY_CODE":"US","CLASSIFICATION_TYPE":"U","INCLINATION":"53.0556","EPHEMERIS_TYPE":"0","ECCENTRICITY":"0.00012440","RCS_SIZE":"LARGE","EPOCH":"2021-10-10T15:32:00.011904","REF_FRAME":"TEME","MEAN_MOTION_DDOT":"0.0000000000000","ELEMENT_SET_NO":"999","CENTER_NAME":"EARTH","OBJECT_TYPE":"PAYLOAD","MEAN_MOTION":"15.26743071","TLE_LINE2":"2 47788  53.0556 258.3394 0001244  36.5376 323.5706 15.26743071 34149","DECAY_DATE":null,"FILE":"3155694","REV_AT_EPOCH":"3414"},{"MEAN_MOTION":"15.06407732","CENTER_NAME":"EARTH","OBJECT_TYPE":"PAYLOAD","ELEMENT_SET_NO":"999","MEAN_MOTION_DDOT":"0.0000000000000","REF_FRAME":"TEME","REV_AT_EPOCH":"3406","FILE":"3155694","DECAY_DATE":null,"TLE_LINE2":"2 47789  53.0562 263.8016 0001535  72.3049 287.8108 15.06407732 34065","CLASSIFICATION_TYPE":"U","INCLINATION":"53.0562","COUNTRY_CODE":"US","EPOCH":"2021-10-10T15:49:55.299648","RCS_SIZE":"MEDIUM","EPHEMERIS_TYPE":"0","ECCENTRICITY":"0.00015350","TIME_SYSTEM":"UTC","ARG_OF_PERICENTER":"72.3049","OBJECT_NAME":"STARLINK-2315","LAUNCH_DATE":"2021-03-11","GP_ID":"186840357","PERIOD":"95.592","MEAN_ANOMALY":"287.8108","TLE_LINE1":"1 47789U 21018C   21283.65966782  .00002870  00000-0  21146-3 0  9996","OBJECT_ID":"2021-018C","NORAD_CAT_ID":"47789","APOAPSIS":"548.253","BSTAR":"0.00021146000000","MEAN_ELEMENT_THEORY":"SGP4","SITE":"AFETR","SEMIMAJOR_AXIS":"6925.325","MEAN_MOTION_DOT":"0.00002870","RA_OF_ASC_NODE":"263.8016","PERIAPSIS":"546.127"},{"COUNTRY_CODE":"US","INCLINATION":"53.0548","CLASSIFICATION_TYPE":"U","EPHEMERIS_TYPE":"0","ECCENTRICITY":"0.00019730","EPOCH":"2021-10-10T15:16:37.390368","RCS_SIZE":"LARGE","ELEMENT_SET_NO":"999","MEAN_MOTION_DDOT":"0.0000000000000","REF_FRAME":"TEME","MEAN_MOTION":"15.30651152","CENTER_NAME":"EARTH","OBJECT_TYPE":"PAYLOAD","TLE_LINE2":"2 47790  53.0548 255.4368 0001973  39.5202 320.5941 15.30651152 34187","REV_AT_EPOCH":"3418","DECAY_DATE":null,"FILE":"3155694","APOAPSIS":"475.222","BSTAR":"0.00024858000000","MEAN_ELEMENT_THEORY":"SGP4","NORAD_CAT_ID":"47790","PERIAPSIS":"472.518","SEMIMAJOR_AXIS":"6852.005","SITE":"AFETR","MEAN_MOTION_DOT":"0.00007112","RA_OF_ASC_NODE":"255.4368","LAUNCH_DATE":"2021-03-11","GP_ID":"186840609","TIME_SYSTEM":"UTC","ARG_OF_PERICENTER":"39.5202","OBJECT_NAME":"STARLINK-2319","TLE_LINE1":"1 47790U 21018D   21283.63654387  .00007112  00000-0  24858-3 0  9998","OBJECT_ID":"2021-018D","MEAN_ANOMALY":"320.5941","PERIOD":"94.078"},{"PERIAPSIS":"546.268","SITE":"AFETR","MEAN_MOTION_DOT":"0.00000004","SEMIMAJOR_AXIS":"6925.341","RA_OF_ASC_NODE":"283.5341","BSTAR":"0.00001917700000","APOAPSIS":"548.145","MEAN_ELEMENT_THEORY":"SGP4","NORAD_CAT_ID":"47791","TLE_LINE1":"1 47791U 21018E   21283.72048612  .00000004  00000-0  19177-4 0  9999","OBJECT_ID":"2021-018E","MEAN_ANOMALY":"274.0442","PERIOD":"95.592","LAUNCH_DATE":"2021-03-11","GP_ID":"186840860","TIME_SYSTEM":"UTC","ARG_OF_PERICENTER":"86.0702","OBJECT_NAME":"STARLINK-2322","EPHEMERIS_TYPE":"0","ECCENTRICITY":"0.00013550","EPOCH":"2021-10-10T17:17:30.000768","RCS_SIZE":"LARGE","COUNTRY_CODE":"US","CLASSIFICATION_TYPE":"U","INCLINATION":"53.0568","TLE_LINE2":"2 47791  53.0568 283.5341 0001355  86.0702 274.0442 15.06402336 33795","REV_AT_EPOCH":"3379","FILE":"3155694","DECAY_DATE":null,"ELEMENT_SET_NO":"999","MEAN_MOTION_DDOT":"0.0000000000000","REF_FRAME":"TEME","MEAN_MOTION":"15.06402336","OBJECT_TYPE":"PAYLOAD","CENTER_NAME":"EARTH"},{"REF_FRAME":"TEME","MEAN_MOTION_DDOT":"0.0000000000000","ELEMENT_SET_NO":"999","CENTER_NAME":"EARTH","OBJECT_TYPE":"PAYLOAD","MEAN_MOTION":"15.06395518","TLE_LINE2":"2 47792  53.0558 263.7766 0001364  71.9132 288.2005 15.06395518 34062","DECAY_DATE":null,"FILE":"3155694","REV_AT_EPOCH":"3406","COUNTRY_CODE":"US","INCLINATION":"53.0558","CLASSIFICATION_TYPE":"U","ECCENTRICITY":"0.00013640","EPHEMERIS_TYPE":"0","RCS_SIZE":"LARGE","EPOCH":"2021-10-10T16:00:32.173920","GP_ID":"186839608","LAUNCH_DATE":"2021-03-11","OBJECT_NAME":"STARLINK-2334","ARG_OF_PERICENTER":"71.9132","TIME_SYSTEM":"UTC","TLE_LINE1":"1 47792U 21018F   21283.66703905  .00001795  00000-0  13937-3 0  9991","OBJECT_ID":"2021-018F","PERIOD":"95.592","MEAN_ANOMALY":"288.2005","MEAN_ELEMENT_THEORY":"SGP4","APOAPSIS":"548.172","BSTAR":"0.00013937000000","NORAD_CAT_ID":"47792","PERIAPSIS":"546.283","RA_OF_ASC_NODE":"263.7766","MEAN_MOTION_DOT":"0.00001795","SITE":"AFETR","SEMIMAJOR_AXIS":"6925.362"},{"EPHEMERIS_TYPE":"0","ECCENTRICITY":"0.00012730","RCS_SIZE":"LARGE","EPOCH":"2021-10-10T16:21:46.566144","COUNTRY_CODE":"US","CLASSIFICATION_TYPE":"U","INCLINATION":"53.0548","TLE_LINE2":"2 47793  53.0548 263.7026 0001273  76.4963 283.6168 15.06400246 34055","DECAY_DATE":null,"FILE":"3155694","REV_AT_EPOCH":"3405","REF_FRAME":"TEME","MEAN_MOTION_DDOT":"0.0000000000000","ELEMENT_SET_NO":"999","OBJECT_TYPE":"PAYLOAD","CENTER_NAME":"EARTH","MEAN_MOTION":"15.06400246","PERIAPSIS":"546.331","RA_OF_ASC_NODE":"263.7026","MEAN_MOTION_DOT":"0.00000710","SITE":"AFETR","SEMIMAJOR_AXIS":"6925.348","MEAN_ELEMENT_THEORY":"SGP4","APOAPSIS":"548.094","BSTAR":"0.00006658200000","NORAD_CAT_ID":"47793","TLE_LINE1":"1 47793U 21018G   21283.68178896  .00000710  00000-0  66582-4 0  9990","OBJECT_ID":"2021-018G","MEAN_ANOMALY":"283.6168","PERIOD":"95.592","GP_ID":"186839858","LAUNCH_DATE":"2021-03-11","OBJECT_NAME":"STARLINK-2338","ARG_OF_PERICENTER":"76.4963","TIME_SYSTEM":"UTC"},{"LAUNCH_DATE":"2021-03-11","GP_ID":"186841109","ARG_OF_PERICENTER":"62.5886","TIME_SYSTEM":"UTC","OBJECT_NAME":"STARLINK-2341","OBJECT_ID":"2021-018H","TLE_LINE1":"1 47794U 21018H   21283.68547013 -.00000140  00000-0  94924-5 0  9992","MEAN_ANOMALY":"297.5238","PERIOD":"95.592","APOAPSIS":"548.143","BSTAR":"0.00000949240000","MEAN_ELEMENT_THEORY":"SGP4","NORAD_CAT_ID":"47794","PERIAPSIS":"546.312","MEAN_MOTION_DOT":"-0.00000140","SITE":"AFETR","SEMIMAJOR_AXIS":"6925.363","RA_OF_ASC_NODE":"263.6958","MEAN_MOTION_DDOT":"0.0000000000000","ELEMENT_SET_NO":"999","REF_FRAME":"TEME","MEAN_MOTION":"15.06395380","OBJECT_TYPE":"PAYLOAD","CENTER_NAME":"EARTH","TLE_LINE2":"2 47794  53.0570 263.6958 0001322  62.5886 297.5238 15.06395380 34064","REV_AT_EPOCH":"3406","DECAY_DATE":null,"FILE":"3155694","COUNTRY_CODE":"US","INCLINATION":"53.0570","CLASSIFICATION_TYPE":"U","EPHEMERIS_TYPE":"0","ECCENTRICITY":"0.00013220","RCS_SIZE":"LARGE","EPOCH":"2021-10-10T16:27:04.619232"}];
